{
  "norad_id": 68828,
  "name": "2026-090C",
  "history": [
    {
      "epoch": "2026-04-24T17:42:39.106368Z",
      "apogee_km": 337.5464153615567,
      "perigee_km": 321.67038938830683,
      "latitude_deg": 6.0254972038115603e-05,
      "longitude_deg": -84.14807730900367,
      "height_km": 336.4660288617215,
      "semi_major_axis_km": 6707.7454023749315,
      "eccentricity": 0.00118341,
      "inclination_deg": 96.6472,
      "raan_deg": 34.2814,
      "arg_perigee_deg": 242.5779,
      "mean_anomaly_deg": 117.4288,
      "mean_motion_rev_day": 15.80294056
    }
  ]
}